{"type":"FeatureCollection","geometryVersion":"admdongkor-20260701-simplified","features":[{"type":"Feature","properties":{"regionCode":"50110","name":"제주시","parentCode":"50"},"geometry":{"type":"MultiPolygon","coordinates":[[[[126.14960243955626,33.309413504073966],[126.14508708364231,33.30945784595432],[126.1442624934684,33.31212721614212],[126.1510785923505,33.31376436412883],[126.15357439910112,33.31115111952194],[126.14960243955626,33.309413504073966]]],[[[126.27069895027334,33.30031645586196],[126.27053737950678,33.297726136409985],[126.26880883147496,33.29633151719414],[126.26152249559479,33.29513464864325],[126.25430684567431,33.292979461525654],[126.2473862218343,33.28932450299389],[126.24328333962794,33.28497567431282],[126.24293255988987,33.2830405340685],[126.24393642825235,33.27564171306951],[126.24174551566955,33.27459224942602],[126.23027555782238,33.28382275758683],[126.22120340076532,33.28755374880296],[126.21150559280451,33.29200776267386],[126.20166554391155,33.295856869197024],[126.19194984612312,33.29837500103383],[126.19160367450597,33.294542364240435],[126.18351121851322,33.29283185974186],[126.17909021623232,33.29300353185525],[126.1759641744442,33.29231960234567],[126.1712460115888,33.2886350275652],[126.17207108779775,33.28554562296053],[126.16816992377238,33.28161544491027],[126.16573562118545,33.28328623762429],[126.16303732030622,33.28332862301251],[126.16069680608351,33.28518009051644],[126.16128840568929,33.28900450242955],[126.15927109307334,33.2923017647003],[126.16077150372705,33.2963489230131],[126.16584737898658,33.29903794231811],[126.16382868833624,33.30266046982906],[126.16217346273008,33.308634262358645],[126.16430688806477,33.31139018610952],[126.16618950421284,33.31715406778372],[126.16498841289591,33.32210076847922],[126.16119623302065,33.32386800297654],[126.16127578842584,33.329241904291486],[126.16226564113269,33.331726547216185],[126.15981178913557,33.33310686050302],[126.15907615854869,33.33662278337771],[126.16148257296183,33.33909232371232],[126.1641559908873,33.338913566343216],[126.16467126306125,33.342964414113034],[126.16725678087849,33.346374710769105],[126.17454688323386,33.3482764996753],[126.17768684984732,33.34725118022303],[126.1792895054082,33.35395004076736],[126.17818637549053,33.35720093980435],[126.17995046238555,33.3597294661031],[126.18699242255694,33.36395109379763],[126.19463764157602,33.36517435833804],[126.1967894872783,33.36668829136231],[126.19998993883407,33.36621548792895],[126.20390274226467,33.369740335161055],[126.20427903204802,33.37233771785158],[126.20930516085195,33.37563481557326],[126.21212427199922,33.37630698820911],[126.21383128584924,33.37872070349601],[126.2117933548122,33.381621937070754],[126.22082247224347,33.387470005833286],[126.22216424282705,33.391266025576314],[126.2263481292224,33.391022964958715],[126.22885505036015,33.39386126143511],[126.23206835258942,33.39095010404619],[126.2364211855356,33.39611280821944],[126.24090614536227,33.395775717664996],[126.24007332438222,33.39958727418668],[126.24094070239775,33.40148302657409],[126.24430316361112,33.40260967024826],[126.24684574675393,33.40151331146676],[126.24972952117443,33.40216216851574],[126.24884635241256,33.405847024628976],[126.2504313891138,33.40910895971919],[126.25371310098804,33.41255115693646],[126.25576903787673,33.41282943231281],[126.25855346300614,33.41533453869333],[126.2628207219056,33.41632870823386],[126.26070520488881,33.42150546935183],[126.25870525282696,33.418093559807225],[126.2565653148442,33.41748046807318],[126.25626409698404,33.42188025353286],[126.25783768126225,33.42634985904585],[126.26227992696268,33.42662192713728],[126.25996467499746,33.43468522760289],[126.26160139583153,33.437518395050596],[126.269710984427,33.43926786143501],[126.27259598169387,33.438916587821055],[126.2765765166986,33.44192699701531],[126.27748525407573,33.44426467552487],[126.28086192341395,33.443547805205455],[126.28538468829943,33.44602912198719],[126.28893895167512,33.44449466997086],[126.29221417978819,33.44422700443409],[126.29637789217055,33.44751762986162],[126.29950306689892,33.44753491301913],[126.30217985227631,33.45083506869545],[126.30503030649008,33.451488987483934],[126.31033880581705,33.46030781022398],[126.30841588112229,33.46268910072217],[126.30804396751242,33.46635478937176],[126.3133102237843,33.46979672332835],[126.31678674313494,33.46841266471997],[126.32074873602612,33.46824312266153],[126.32618749136562,33.46916587250096],[126.33254096771233,33.46812684177349],[126.3354825335904,33.46693071482899],[126.33897653867129,33.46819328589809],[126.34150336792852,33.47145991716831],[126.34769417116104,33.47372527885035],[126.35220465568271,33.47443368545249],[126.35320706074599,33.47791532466755],[126.3597421235176,33.480086217809905],[126.36260474906067,33.47927175833446],[126.36839718013512,33.478854955185426],[126.37782230015769,33.48465879330171],[126.37969095784052,33.48434925155446],[126.38263446496319,33.488223116552504],[126.38902048718772,33.490136565929845],[126.39176868748633,33.489352772206175],[126.39468584016153,33.484391280027566],[126.39834506151236,33.484026411042564],[126.40385287053033,33.486253749233185],[126.40724790111547,33.48553651461821],[126.40886101037525,33.48918013190439],[126.414451630977,33.49051437136501],[126.41864838432902,33.48954547036023],[126.41974483932385,33.49272052344286],[126.42374941426266,33.49580480556644],[126.43184813664124,33.49452932116221],[126.44030729725819,33.49637533062586],[126.44286654025963,33.49856798473481],[126.44707882110464,33.49863888245504],[126.45049443546237,33.497479748883926],[126.45237678427814,33.49809995838537],[126.45428678841881,33.500744150022825],[126.45210747046366,33.50187157392736],[126.45462149785739,33.5046328335246],[126.46069944219003,33.504612254263364],[126.46274497903858,33.50333840993716],[126.46506961146756,33.50829926033214],[126.46826545675854,33.51059787990228],[126.47137562420231,33.50980326541556],[126.48005915793067,33.51002855382526],[126.48381874666173,33.51211381265592],[126.4829988906288,33.51473131081762],[126.48518006806593,33.51815733483152],[126.48910438350401,33.52037989100501],[126.49539172004694,33.52170562681869],[126.49891085790624,33.520952680184486],[126.50155988413145,33.518327727420576],[126.50925879100038,33.51682271808421],[126.51416532099242,33.51652896951246],[126.51575938942683,33.518603523349185],[126.51733420568445,33.51990520159174],[126.52472021087819,33.518973254949735],[126.52778632390533,33.51955063533447],[126.5349899302467,33.52459218958396],[126.5397380770155,33.53081275524188],[126.54530014637689,33.527736530841935],[126.5445035842261,33.52338631693574],[126.55067064818263,33.52366978143397],[126.54884308406554,33.52084166367888],[126.55511291573238,33.52138796568824],[126.55840807212272,33.522710195716236],[126.56160969992459,33.52770392221223],[126.56581147735015,33.52467188192847],[126.57068696063563,33.52592965987087],[126.57345254949095,33.525782764468275],[126.5725373478216,33.527166105097216],[126.57478122640121,33.52937243855583],[126.57741881132343,33.529156359578266],[126.58158833358564,33.527178565531166],[126.58419899889716,33.52716863075906],[126.58622567729627,33.52889308601376],[126.58731581675582,33.53280610059477],[126.59122104537825,33.53369812282638],[126.59737071439703,33.53776955632276],[126.60281013147937,33.53651181092378],[126.60315480590239,33.53524303286692],[126.60477834763758,33.53677792214623],[126.61068372631372,33.5367966921647],[126.61198728307586,33.538752893000854],[126.6172730828812,33.53876939892575],[126.62215230166251,33.540065484325375],[126.6270371921113,33.54008034563783],[126.62978675113398,33.53817954357811],[126.63347115003916,33.537580530732896],[126.63400414342227,33.54084574375811],[126.63232140184945,33.542213298241016],[126.63449312908257,33.5459103999563],[126.63836960598083,33.54630741596811],[126.63693319103464,33.54978032672656],[126.63988100291164,33.55107003350252],[126.64318304460807,33.55489228626],[126.64364974234573,33.556662687604835],[126.64709506916167,33.5560420416142],[126.65804906928328,33.552120255870406],[126.65806137279007,33.54900916059382],[126.65989076084185,33.54736713585921],[126.6624057486455,33.54752655438582],[126.665735373686,33.54443701957029],[126.67315144235056,33.54548363659314],[126.67527536567928,33.55268753506622],[126.68070439708809,33.55364725409714],[126.6832676829737,33.550634246531985],[126.68740826963288,33.550949827594465],[126.69002414619847,33.55351853229709],[126.69469644853886,33.552005125258376],[126.69709594586482,33.55396313217987],[126.70522963847459,33.55404669410811],[126.70653892337923,33.555128922367686],[126.71243530791499,33.55551233496246],[126.71513793665561,33.554867475696156],[126.71756622272929,33.55631397296033],[126.71813398872469,33.55881802048887],[126.72304547462161,33.5600944178036],[126.72883569540714,33.56248688843996],[126.7336201452718,33.559935366052144],[126.74021738941063,33.55920488439322],[126.74904426406442,33.56128109608216],[126.75517528697316,33.560008098525074],[126.75595694179887,33.558799806885276],[126.7608784088406,33.56043882827574],[126.7606345334987,33.56315739900183],[126.76203196675702,33.565425715009034],[126.7661179356031,33.56690876555048],[126.77019570240648,33.566061339886375],[126.78049424827857,33.566479334001116],[126.78292196504454,33.565902738616764],[126.78848245957069,33.56225641881405],[126.79420809497418,33.560259142067075],[126.79633013438836,33.55797027224822],[126.79980530253432,33.55695085194132],[126.80156430895352,33.55975393514789],[126.80643932563969,33.559981870196566],[126.80849164855992,33.558726384156714],[126.81424479043592,33.56290689011017],[126.81617683395234,33.56164677643168],[126.82149946221108,33.56056990074846],[126.82791655676974,33.56009910756973],[126.82736983465001,33.557503656532816],[126.82812009167606,33.55383423789856],[126.83039437459848,33.55193374382578],[126.83013633339287,33.547271620479144],[126.83491496665472,33.542157622947265],[126.83969541546632,33.53882008633098],[126.84290905019684,33.5378730982901],[126.84267165408221,33.53564162714152],[126.8453901906725,33.533905401910424],[126.85097677193959,33.53400327408193],[126.852600746789,33.530943630806284],[126.85778044586438,33.53100625467722],[126.85919046429804,33.5299018578761],[126.85750259460116,33.52699800233788],[126.86097350555966,33.52568386537617],[126.86445665460182,33.52602026337149],[126.86472132184902,33.52893598040995],[126.8669151825767,33.53090420406725],[126.87157140266305,33.53166116458292],[126.87378728963697,33.53023722817242],[126.88622612675896,33.528935295362274],[126.89245967140187,33.52894093146783],[126.89734842854271,33.52506502836385],[126.90242529719703,33.52631718100115],[126.90386131593475,33.524563112973375],[126.90363482125211,33.52194345958469],[126.90751555444311,33.52091624617172],[126.9058399102441,33.5181677498239],[126.90181211954858,33.517415326228715],[126.9041273500505,33.515169457780736],[126.90300991016197,33.51376374120877],[126.89954206373906,33.51282438935868],[126.90032735686042,33.51110804354841],[126.90756282386809,33.51167565341648],[126.91387150625874,33.50816835826248],[126.9159279575358,33.501592396114965],[126.91422098177264,33.500375839301554],[126.91439616176118,33.4960148593911],[126.91200733118558,33.49358239735798],[126.91294979884017,33.49058033875045],[126.91670792782777,33.49001100721551],[126.91782112541442,33.48686606050747],[126.9160294260913,33.48522047631848],[126.91056258013069,33.48678947104375],[126.90706284503639,33.48542848147258],[126.90466998753148,33.48707097677367],[126.90323538722211,33.48334344001334],[126.89701157256962,33.48361800440266],[126.88776732439649,33.481493208874355],[126.87767097856342,33.47622960774201],[126.87564357428059,33.474677846876126],[126.8681611910907,33.47160841113581],[126.86523304815195,33.469412945389536],[126.86216666346736,33.46914492937222],[126.85793059828691,33.46713682473896],[126.85432932449092,33.463201609210245],[126.84648437626306,33.46213371592929],[126.83688601460052,33.45834154178073],[126.8291834951103,33.453984296232825],[126.82390974731963,33.45299412276213],[126.82468558308992,33.448421652290186],[126.82180355144737,33.446641003519964],[126.8165248760782,33.448220780482785],[126.81594209184153,33.44663237070024],[126.81075933893295,33.44552837483666],[126.8052279222526,33.443527835670494],[126.79667532894389,33.440431567025904],[126.79333932576266,33.44151976216506],[126.78869446360244,33.44151465909682],[126.78320396057578,33.43459706124991],[126.77819666346075,33.43224890397104],[126.77487793397869,33.42884368944111],[126.77198946758033,33.42766878647137],[126.76188071687153,33.42082687732782],[126.75747114848173,33.418235365512196],[126.75301059408731,33.418336177705015],[126.74929461412579,33.417171234567576],[126.74422143724057,33.41811114966246],[126.73416498396787,33.42373087149461],[126.73267781106921,33.42540901419871],[126.72451648323778,33.42412948757518],[126.72215182685194,33.42287593327013],[126.71775212267517,33.42204964848277],[126.71198284456231,33.42240184707832],[126.7068269332009,33.421817087517276],[126.69961838291998,33.41821780985067],[126.69558472937597,33.41670934709537],[126.69038315376618,33.41276114981809],[126.68746652920149,33.41180347814553],[126.68815719611206,33.40961216895946],[126.68778510142438,33.40400682513237],[126.68626957138325,33.39976009621726],[126.67169652198828,33.398599699514556],[126.66907960720258,33.399145330785714],[126.66532041994994,33.40224379956827],[126.6625201823702,33.40223618493566],[126.65452012715505,33.39984810566887],[126.65197631833402,33.39453748768428],[126.64922367220282,33.39483218497849],[126.63606201828996,33.393205685084595],[126.63335511023331,33.394033216435105],[126.62604439718814,33.38991982769604],[126.62277186706926,33.383694562651684],[126.61966687329448,33.38493071110507],[126.61073592933481,33.38234316514772],[126.6072234384076,33.38223611836901],[126.60194828815699,33.38042733645281],[126.59737433573888,33.37713130218784],[126.59390018172307,33.37574138363758],[126.5915370691862,33.37375592425305],[126.58103842716773,33.37129577475931],[126.576154446885,33.371093039956946],[126.5699101194602,33.37187060974116],[126.55820260334919,33.37105694230555],[126.5510740001468,33.37203712210403],[126.54810684970316,33.370730338063915],[126.54128472985214,33.36602423329053],[126.53962256699403,33.36428526996392],[126.53576066305578,33.361770376455546],[126.53424567253471,33.3632318785311],[126.5294479951576,33.36153222718238],[126.52721205751835,33.36310361483168],[126.52230306481837,33.36116682927382],[126.51797448285939,33.360293004184484],[126.51215751512338,33.361489164835895],[126.50849316989785,33.35877902847591],[126.50528770666608,33.35767492836578],[126.50266894220377,33.35894419030322],[126.49867386641853,33.35921180453363],[126.48984648459556,33.35455267635793],[126.48472477321177,33.35836636575011],[126.47977420148516,33.35839797393215],[126.47511585205487,33.3555551088482],[126.47051761787516,33.35751404045719],[126.46622321325383,33.35817930656366],[126.45957174123878,33.35772171063578],[126.44873374873262,33.35851727010335],[126.44540313519359,33.358561525549106],[126.44210031480729,33.35747349711855],[126.43801229590863,33.35326951902333],[126.43848500998344,33.34845951577256],[126.4376592175934,33.343692502341966],[126.43341176695928,33.339755672522],[126.42826971693358,33.33749426514647],[126.41806896535284,33.337753891411744],[126.40995169281733,33.34118828549026],[126.4003620481431,33.34377042918998],[126.3954597154696,33.34424366847562],[126.39178755370227,33.34368284936768],[126.38163093116393,33.346561815638644],[126.37515692620381,33.34677354694323],[126.37093699502456,33.344731836126655],[126.36885936728032,33.34157421675631],[126.34938113572824,33.341086651372805],[126.34326739787642,33.34331932303135],[126.3387482990136,33.3414896356506],[126.33606091298158,33.33923587144979],[126.33090266140944,33.3329646490784],[126.32702998731078,33.33115581424156],[126.32381731241696,33.326350409951864],[126.32114580754177,33.32583842612081],[126.31908534525682,33.32719728557484],[126.30280563608214,33.322299725891995],[126.29980691724309,33.3198088086013],[126.2926858422789,33.31705383358416],[126.28491781862081,33.312785356125005],[126.28103795329555,33.308287997973245],[126.2724527904613,33.30235213956509],[126.27069895027334,33.30031645586196]]],[[[126.22873995171696,33.412449725860895],[126.2322067955028,33.409910122248206],[126.23127933634665,33.404746570734495],[126.22487574987228,33.40424582326579],[126.22198203505886,33.40588897944633],[126.22180012754559,33.41002349093568],[126.22323999039423,33.411799952930345],[126.22873995171696,33.412449725860895]]],[[[126.32639940317492,33.91274887965577],[126.32469653373651,33.90884395948364],[126.32165639794195,33.91031954179658],[126.32266510308082,33.912333559330904],[126.32125135012545,33.91547504407939],[126.3254895550377,33.91450023324346],[126.32639940317492,33.91274887965577]]],[[[126.33247984895772,33.944294228572815],[126.32835105609165,33.944257154131634],[126.32443329634917,33.94114990712428],[126.32483206616432,33.93551360883093],[126.32765534756307,33.93552563444121],[126.32997946299818,33.93292985203451],[126.32850776011692,33.93035372112952],[126.32213165679119,33.92997904877354],[126.32039059508038,33.93089991279428],[126.31858641298913,33.935641582011485],[126.31691262625287,33.93769130628067],[126.31622009628569,33.94095750149199],[126.3106069070562,33.94511398516344],[126.31145635038226,33.946281170940615],[126.30635327721728,33.94805177237659],[126.30288075934496,33.95011777230453],[126.3047995247129,33.953950120448916],[126.31047886663572,33.952547541476285],[126.316343505418,33.95455030472747],[126.32149582049841,33.95205946004044],[126.32449293946306,33.95203381267119],[126.33030314688598,33.953636181300105],[126.33171864504408,33.95608584361885],[126.3368299957042,33.95711221142329],[126.34140422856278,33.95608432190164],[126.34265647451683,33.95456042325046],[126.33773892469874,33.95288124289828],[126.33877522843682,33.95124167024072],[126.34281153428266,33.94939443978054],[126.34194901126476,33.945877488673325],[126.33247984895772,33.944294228572815]]],[[[126.30250285535571,33.95438465935022],[126.3011913990834,33.95269392394991],[126.29764033850108,33.952127412449535],[126.28893966824378,33.958135756892204],[126.28773534579629,33.959895685748364],[126.28846009558053,33.96256476899161],[126.28653819631458,33.964716198833756],[126.28293375676706,33.965545903676],[126.28407583699357,33.96806518271307],[126.29402703504437,33.96618084680654],[126.29639767353834,33.965234410742234],[126.29974967472799,33.96313629434226],[126.29443193398649,33.96145742322848],[126.29975764010155,33.96022886869425],[126.30183937343664,33.958478451868366],[126.30250285535571,33.95438465935022]]],[[[126.3878581898781,33.96211394564842],[126.38871297038736,33.965989187869155],[126.39090104909432,33.96489702368691],[126.3900535326132,33.96095579853285],[126.3878581898781,33.96211394564842]]],[[[126.38220484865518,33.967291178519176],[126.37968533373535,33.964726941771715],[126.37715124566802,33.96608526255104],[126.3803119009623,33.968290706524435],[126.38220484865518,33.967291178519176]]],[[[126.34945753757894,33.98375345172912],[126.35378780163117,33.98217830430753],[126.35106381077719,33.98064284511083],[126.34536290618856,33.98155389789931],[126.34579768776103,33.98498585758405],[126.34945753757894,33.98375345172912]]],[[[126.32264214456121,33.985436701476054],[126.31947449830108,33.988680054818886],[126.3235737630621,33.988891290430836],[126.32591326655825,33.98704953841749],[126.3256306368617,33.98513271100955],[126.32264214456121,33.985436701476054]]],[[[126.24629782724054,33.987549921882035],[126.24943151820223,33.99074946807476],[126.25146142831477,33.99071833014468],[126.25374054751678,33.988025993326275],[126.25081074056914,33.98556744102098],[126.24629782724054,33.987549921882035]]],[[[126.34779360676755,34.00534462623268],[126.34304721567135,34.007953285232446],[126.33493471093222,34.008387082675696],[126.3307779586479,34.01075843379674],[126.33672815998764,34.01322024806041],[126.33990910487643,34.011286870651716],[126.34526487809143,34.011467639449684],[126.35119277888327,34.0083732662845],[126.35188222100986,34.0069537531837],[126.34779360676755,34.00534462623268]]],[[[126.97275894575313,33.511304090865856],[126.9678710528972,33.512318952948355],[126.96828773677828,33.504896464499936],[126.97113159020542,33.50200935860644],[126.97148417148703,33.49839967065823],[126.96950467378248,33.49631351736374],[126.96876380052237,33.49236834858581],[126.96665707671742,33.48947993652054],[126.96397466462211,33.48889089577135],[126.95878656190465,33.49240427445361],[126.95616849093933,33.49085246857769],[126.94748043458625,33.49280094842838],[126.9432314719897,33.49467077539946],[126.94441164553278,33.497024373697876],[126.94264908263446,33.50230767003565],[126.94073123823813,33.504285440744255],[126.94076113964492,33.50668416794839],[126.94401152076797,33.51306594824247],[126.94787402612727,33.51519663064945],[126.94901288000834,33.51883105128314],[126.94742610427231,33.51943602085431],[126.9470343643733,33.52279026164158],[126.9505398727071,33.525260949184435],[126.95542763235595,33.52570902091503],[126.9623733757843,33.51901693197836],[126.96211850647617,33.517465987592665],[126.95834981259961,33.51540581790072],[126.95889417953727,33.51275883946948],[126.96608092010244,33.51495369511734],[126.96716645757924,33.51653160920599],[126.97256590372541,33.5150088657639],[126.97275894575313,33.511304090865856]]],[[[126.69497676874494,33.55488303302056],[126.69267235946343,33.55695139249397],[126.69528653424018,33.560099495963705],[126.6974867013069,33.55656677403534],[126.69716454118033,33.55485791440083],[126.69497676874494,33.55488303302056]]]]}},{"type":"Feature","properties":{"regionCode":"50130","name":"서귀포시","parentCode":"50"},"geometry":{"type":"MultiPolygon","coordinates":[[[[126.26719284826042,33.123628750625386],[126.2702748786562,33.1225489617483],[126.27114565790558,33.11515308891478],[126.26998240373672,33.1124540965455],[126.26719738235562,33.111930038540685],[126.26471674864517,33.114814151709915],[126.2644340329072,33.11809807381878],[126.26719284826042,33.123628750625386]]],[[[126.27138789213667,33.176777440703205],[126.27497440437888,33.17542489189161],[126.27733580339084,33.17201761809749],[126.27919365266776,33.17120285425807],[126.28021850392764,33.16743455168499],[126.27037685989993,33.16123441560167],[126.26746241620052,33.16617523869541],[126.26261939027277,33.16909293745598],[126.26433162206104,33.171995152841255],[126.26849087769767,33.17585057889858],[126.27138789213667,33.176777440703205]]],[[[126.30748471826706,33.20968707437876],[126.3109824238872,33.208580807535675],[126.31178621909139,33.20645892201361],[126.30919725358204,33.205640479617486],[126.30748471826706,33.20968707437876]]],[[[126.51769139895246,33.215812133230266],[126.5129543117889,33.2171284075367],[126.51555926377833,33.220485815578144],[126.51907020069883,33.21833149433987],[126.51769139895246,33.215812133230266]]],[[[126.55992472741949,33.237491004036194],[126.56336959965866,33.23832258088896],[126.56465898365705,33.23345178762239],[126.5586102618477,33.23612110616434],[126.55931502612411,33.2371496064044],[126.55428887240343,33.238722717871724],[126.55075173501655,33.24107979604075],[126.54797324180072,33.237277187570484],[126.54365348988024,33.2378937876403],[126.54003396140914,33.24076534017023],[126.53712234288493,33.24006915465484],[126.53392629877936,33.23805011261064],[126.53036798855761,33.2383793602405],[126.52085174452668,33.24069272247276],[126.51958918377974,33.23701634759157],[126.5091920629719,33.230024245763865],[126.50529809738673,33.2285832699375],[126.49752415222517,33.22753452036484],[126.49624368611872,33.229351206329454],[126.49171290223474,33.230247960064176],[126.48846407196588,33.22993641311241],[126.48372459704495,33.22655606500184],[126.47865892523417,33.22599681179413],[126.47908484099908,33.22272946514055],[126.47602523085517,33.22159698229259],[126.47031300260934,33.222525081849675],[126.4674706346853,33.226615690448455],[126.4640916594836,33.22789524470107],[126.45979604793295,33.23152985032111],[126.45918808920865,33.23722840222853],[126.45659167043516,33.23902594863302],[126.45043678849169,33.240043889888746],[126.44107490021119,33.235322800516656],[126.43623815224369,33.23507598109254],[126.43558272946602,33.23205184244591],[126.43124992773353,33.231902916339635],[126.42366326473902,33.23608101347977],[126.41702822816698,33.24148583814448],[126.4141445735066,33.242190569829894],[126.41254628928289,33.244058948067476],[126.40485219494923,33.242470105982754],[126.40303353216004,33.240687824313305],[126.4002636697137,33.24027832918497],[126.39690468564031,33.23784382934344],[126.39124705458643,33.23605884672681],[126.38461876116337,33.231478640979226],[126.38161706235259,33.232228005814775],[126.37969557653672,33.23018789912812],[126.37688502219233,33.23151213908336],[126.37304408624244,33.22945162908989],[126.36975354505826,33.22866900646567],[126.36828687940593,33.23066374483711],[126.364545631345,33.23083491739508],[126.36069441903103,33.234099081405375],[126.35533509431961,33.23528953659265],[126.34942890941588,33.23434013467406],[126.34436431766672,33.23597109853143],[126.33615182672978,33.23531634401306],[126.33615746129264,33.23672154577851],[126.33342330624124,33.23967333733647],[126.32842060190984,33.24035996335295],[126.3198519202338,33.23809499980685],[126.31589378943937,33.23563837131329],[126.31578896392504,33.23223545493467],[126.31134337839191,33.23197913219022],[126.30911995005864,33.228234502001705],[126.30641777232192,33.228296686930186],[126.30260735051617,33.226648731144245],[126.29760294435744,33.222754186374495],[126.29522580110586,33.21929442496243],[126.29733503434467,33.21834954212026],[126.29512342013403,33.21267703228799],[126.29355685444548,33.211251918999956],[126.29194898390635,33.2041784501371],[126.29432324461219,33.20260995167544],[126.29575140650554,33.19849715541893],[126.29543544486799,33.1963906734112],[126.29157553286429,33.19468064149641],[126.28909760655486,33.194522613165866],[126.28604050928627,33.19651036051661],[126.28470884242698,33.200205595751754],[126.27953767551715,33.19831414710076],[126.27637953147773,33.197952771102806],[126.27643907537505,33.19565000277383],[126.27159899604727,33.19393883345784],[126.26907312617062,33.194040927593406],[126.26185813326184,33.19782143056938],[126.26020117154683,33.20064034797286],[126.26117071449306,33.2049712654658],[126.26367540872849,33.205371177944876],[126.26240587462564,33.20957341669934],[126.25745715276491,33.210415547446324],[126.25527149656301,33.20960229144683],[126.25231219260372,33.21390299516215],[126.24936270280891,33.213115142967574],[126.24592816727775,33.21760939864642],[126.24469092974616,33.22047453450969],[126.24228674660111,33.22116260303574],[126.2398580405071,33.225708925343106],[126.2351331328391,33.22804101873355],[126.23435406227819,33.231329196556466],[126.23245841775754,33.234474255649204],[126.22804403697253,33.23566075766873],[126.22523547513688,33.23864160087529],[126.21925853287644,33.24179231957403],[126.2143076355243,33.24169915259343],[126.21220958117934,33.240778043652384],[126.20760951937946,33.24365223015253],[126.19982643730326,33.24592522149348],[126.19704146604722,33.24877812290829],[126.19500860805871,33.24940801726127],[126.1914377592687,33.25233291634457],[126.191962465488,33.25390672749128],[126.18561083261304,33.256694367113546],[126.18221758590856,33.2589124804787],[126.17958531921354,33.261877338037756],[126.17915714546993,33.26553444258351],[126.17729648427918,33.268228848190304],[126.17294649827046,33.27086036443362],[126.16943949533984,33.274131606809306],[126.16810105868137,33.27718889538345],[126.16816992377238,33.28161544491027],[126.17207108779775,33.28554562296053],[126.1712460115888,33.2886350275652],[126.1759641744442,33.29231960234567],[126.17909021623232,33.29300353185525],[126.18351121851322,33.29283185974186],[126.19160367450597,33.294542364240435],[126.19194984612312,33.29837500103383],[126.20166554391155,33.295856869197024],[126.21150559280451,33.29200776267386],[126.22120340076532,33.28755374880296],[126.23027555782238,33.28382275758683],[126.24174551566955,33.27459224942602],[126.24393642825235,33.27564171306951],[126.24293255988987,33.2830405340685],[126.24328333962794,33.28497567431282],[126.2473862218343,33.28932450299389],[126.25430684567431,33.292979461525654],[126.26152249559479,33.29513464864325],[126.26880883147496,33.29633151719414],[126.27053737950678,33.297726136409985],[126.27069895027334,33.30031645586196],[126.2724527904613,33.30235213956509],[126.28103795329555,33.308287997973245],[126.28491781862081,33.312785356125005],[126.2926858422789,33.31705383358416],[126.29980691724309,33.3198088086013],[126.30280563608214,33.322299725891995],[126.31908534525682,33.32719728557484],[126.32114580754177,33.32583842612081],[126.32381731241696,33.326350409951864],[126.32702998731078,33.33115581424156],[126.33090266140944,33.3329646490784],[126.33606091298158,33.33923587144979],[126.3387482990136,33.3414896356506],[126.34326739787642,33.34331932303135],[126.34938113572824,33.341086651372805],[126.36885936728032,33.34157421675631],[126.37093699502456,33.344731836126655],[126.37515692620381,33.34677354694323],[126.38163093116393,33.346561815638644],[126.39178755370227,33.34368284936768],[126.3954597154696,33.34424366847562],[126.4003620481431,33.34377042918998],[126.40995169281733,33.34118828549026],[126.41806896535284,33.337753891411744],[126.42826971693358,33.33749426514647],[126.43341176695928,33.339755672522],[126.4376592175934,33.343692502341966],[126.43848500998344,33.34845951577256],[126.43801229590863,33.35326951902333],[126.44210031480729,33.35747349711855],[126.44540313519359,33.358561525549106],[126.44873374873262,33.35851727010335],[126.45957174123878,33.35772171063578],[126.46622321325383,33.35817930656366],[126.47051761787516,33.35751404045719],[126.47511585205487,33.3555551088482],[126.47977420148516,33.35839797393215],[126.48472477321177,33.35836636575011],[126.48984648459556,33.35455267635793],[126.49867386641853,33.35921180453363],[126.50266894220377,33.35894419030322],[126.50528770666608,33.35767492836578],[126.50849316989785,33.35877902847591],[126.51215751512338,33.361489164835895],[126.51797448285939,33.360293004184484],[126.52230306481837,33.36116682927382],[126.52721205751835,33.36310361483168],[126.5294479951576,33.36153222718238],[126.53424567253471,33.3632318785311],[126.53576066305578,33.361770376455546],[126.53962256699403,33.36428526996392],[126.54128472985214,33.36602423329053],[126.54810684970316,33.370730338063915],[126.5510740001468,33.37203712210403],[126.55820260334919,33.37105694230555],[126.5699101194602,33.37187060974116],[126.576154446885,33.371093039956946],[126.58103842716773,33.37129577475931],[126.5915370691862,33.37375592425305],[126.59390018172307,33.37574138363758],[126.59737433573888,33.37713130218784],[126.60194828815699,33.38042733645281],[126.6072234384076,33.38223611836901],[126.61073592933481,33.38234316514772],[126.61966687329448,33.38493071110507],[126.62277186706926,33.383694562651684],[126.62604439718814,33.38991982769604],[126.63335511023331,33.394033216435105],[126.63606201828996,33.393205685084595],[126.64922367220282,33.39483218497849],[126.65197631833402,33.39453748768428],[126.65452012715505,33.39984810566887],[126.6625201823702,33.40223618493566],[126.66532041994994,33.40224379956827],[126.66907960720258,33.399145330785714],[126.67169652198828,33.398599699514556],[126.68626957138325,33.39976009621726],[126.68778510142438,33.40400682513237],[126.68815719611206,33.40961216895946],[126.68746652920149,33.41180347814553],[126.69038315376618,33.41276114981809],[126.69558472937597,33.41670934709537],[126.69961838291998,33.41821780985067],[126.7068269332009,33.421817087517276],[126.71198284456231,33.42240184707832],[126.71775212267517,33.42204964848277],[126.72215182685194,33.42287593327013],[126.72451648323778,33.42412948757518],[126.73267781106921,33.42540901419871],[126.73416498396787,33.42373087149461],[126.74422143724057,33.41811114966246],[126.74929461412579,33.417171234567576],[126.75301059408731,33.418336177705015],[126.75747114848173,33.418235365512196],[126.76188071687153,33.42082687732782],[126.77198946758033,33.42766878647137],[126.77487793397869,33.42884368944111],[126.77819666346075,33.43224890397104],[126.78320396057578,33.43459706124991],[126.78869446360244,33.44151465909682],[126.79333932576266,33.44151976216506],[126.79667532894389,33.440431567025904],[126.8052279222526,33.443527835670494],[126.81075933893295,33.44552837483666],[126.81594209184153,33.44663237070024],[126.8165248760782,33.448220780482785],[126.82180355144737,33.446641003519964],[126.82468558308992,33.448421652290186],[126.82390974731963,33.45299412276213],[126.8291834951103,33.453984296232825],[126.83688601460052,33.45834154178073],[126.84648437626306,33.46213371592929],[126.85432932449092,33.463201609210245],[126.85793059828691,33.46713682473896],[126.86216666346736,33.46914492937222],[126.86523304815195,33.469412945389536],[126.8681611910907,33.47160841113581],[126.87564357428059,33.474677846876126],[126.87767097856342,33.47622960774201],[126.88776732439649,33.481493208874355],[126.89701157256962,33.48361800440266],[126.90323538722211,33.48334344001334],[126.90389151893262,33.479668239204486],[126.90612956265922,33.47800761552305],[126.90961803559864,33.479567615144845],[126.91245090585755,33.47322242477778],[126.91469628727101,33.47563517075851],[126.91731115561059,33.4752498825313],[126.9238108723664,33.472721906368484],[126.92443817039556,33.470623929805],[126.92807292247277,33.46937143499527],[126.92843320804634,33.47383707089576],[126.93627828116226,33.473810953815494],[126.93562456028747,33.4717502966256],[126.93824818891372,33.46818522073985],[126.93792255277089,33.46545413483319],[126.94014521997077,33.46228509094649],[126.94476853754999,33.46137280759279],[126.94841064459072,33.45774700562494],[126.94713808363436,33.455582202609534],[126.9439724706326,33.454239541501465],[126.94075141226793,33.45432946308226],[126.93419593236253,33.45975196293637],[126.93048440367872,33.458408662235826],[126.9307416514409,33.45536057390401],[126.9286693726694,33.45259196957901],[126.9265222042152,33.45240779589231],[126.92481551736951,33.44798678584583],[126.92543627811494,33.445600554537286],[126.9227434062125,33.44541597291524],[126.9227454970091,33.44309930077622],[126.92543840183745,33.44316196120448],[126.92518692126643,33.439442926793916],[126.92384135914413,33.438466653334515],[126.925299691966,33.4353098637209],[126.92915663315637,33.43555602841138],[126.93479946551729,33.43205369039175],[126.93713034096626,33.42918057085654],[126.93356730939742,33.42564268209618],[126.93211455697936,33.422349754727605],[126.92854890019787,33.42253061913094],[126.92425380022897,33.424722774634475],[126.92208362410425,33.42667228880921],[126.92470097265314,33.42932592203882],[126.92302306056227,33.43397620038701],[126.91771018777344,33.43427755919017],[126.91676832312451,33.429930421851424],[126.91862692623243,33.42685291697158],[126.91615483086383,33.424747953206065],[126.91437664995894,33.42011336232169],[126.91256556892671,33.41977794218172],[126.91170541229499,33.41716360966358],[126.9121512458402,33.413871959427055],[126.90890175264852,33.411485931587],[126.9087076624612,33.4067588649333],[126.9034249200923,33.403073568767724],[126.90639383615213,33.39861789033049],[126.90752597150193,33.3948262847433],[126.90713176331317,33.39119274114874],[126.89840887216846,33.387862018277595],[126.89500268551917,33.388118653096164],[126.89095701500976,33.38687316128026],[126.88851870757338,33.38417194942183],[126.88482549355844,33.38416853803351],[126.88228493646115,33.382201215238034],[126.88226585267263,33.37938708811171],[126.8794372041478,33.37607840173335],[126.87623077135014,33.37438116409061],[126.87369457858539,33.37166460949169],[126.87337970409519,33.36580422342207],[126.8707484695423,33.3654839397623],[126.86808604438289,33.36366054477179],[126.86872327755252,33.358983378433244],[126.87017002475821,33.35492419168643],[126.86362598990877,33.347275825144926],[126.86140894940385,33.34692608814853],[126.8570525650627,33.33810979274449],[126.85432934307138,33.33765254947734],[126.85053653376941,33.33489801173731],[126.8497725896963,33.336271422305835],[126.84466253105577,33.333332299917224],[126.84304106892938,33.3309358894465],[126.84345152440184,33.327860492619536],[126.84955346449361,33.32494375925776],[126.84823062435746,33.319860259055865],[126.84418590189395,33.31913206855974],[126.8432196705292,33.31675524564057],[126.83631162768691,33.31051809006831],[126.83432106291563,33.30806102386804],[126.82829022906495,33.30593316274505],[126.82380209115576,33.30492591621577],[126.82000110581158,33.30555607749518],[126.81926445884146,33.307344207397556],[126.8125644590094,33.30528997874918],[126.81230278928646,33.302915926423495],[126.80852908735801,33.301385659169355],[126.80361032009894,33.30386327063809],[126.79794500899177,33.30261026883539],[126.79361771374299,33.30379326491269],[126.79128182979349,33.30221390560887],[126.78814556312871,33.30323981533961],[126.78074374797633,33.30687686063703],[126.77702569055775,33.306033041275846],[126.77557368105785,33.30412618958266],[126.77299395134027,33.300512121874924],[126.769537814445,33.29984078087336],[126.76541683683408,33.29476462637168],[126.76547239153138,33.29196394028092],[126.7617045740935,33.29127163956007],[126.75837268242218,33.28925022371757],[126.75089103551653,33.28259307308315],[126.74851472173303,33.27969657021217],[126.74539851612235,33.27805808429499],[126.7388118320224,33.27655780620527],[126.73327684149483,33.28095878284463],[126.73229975925045,33.278599150877056],[126.72371714011425,33.278247655366734],[126.72314748664282,33.27619112385403],[126.71762127335856,33.27468504651176],[126.71562589515402,33.27556707024529],[126.70585217297207,33.273343014905905],[126.69856491698297,33.27030302787587],[126.68965129769211,33.26951437024386],[126.68331410085418,33.26949832089174],[126.67867471018555,33.270636932918414],[126.67721586168275,33.266797848321225],[126.67399397193235,33.267648044709645],[126.67084695296184,33.2706316890101],[126.66398522750369,33.26978147075342],[126.66166694149193,33.271420447363795],[126.66219277504771,33.273968280332944],[126.65875725104765,33.27400106147995],[126.6594935382329,33.2699720335703],[126.65694989612149,33.26751205145968],[126.65322789937557,33.26931358939541],[126.6482174063503,33.26843979872959],[126.64215140907918,33.265754681637056],[126.64054689398291,33.26124001523309],[126.6403228826734,33.25698221546667],[126.63378086139977,33.25493831646474],[126.62745710290548,33.2513012335325],[126.62412082283397,33.25206420342558],[126.62196219356551,33.24896218499798],[126.6201371779073,33.249557626935804],[126.62005081691878,33.24312989536079],[126.61769505744975,33.24019700743631],[126.61440106534306,33.24070872876557],[126.61123601003591,33.240389506940694],[126.60532322833974,33.238688162203154],[126.59939220095457,33.23593137042114],[126.59670768438778,33.23598194676559],[126.59124888582802,33.239007497249084],[126.58928081304208,33.24288667421],[126.58632803130847,33.24371679425687],[126.5827457087385,33.243020771870334],[126.57688447884982,33.244108290849674],[126.5720149632807,33.24418699186525],[126.56735626159139,33.240607806375195],[126.57068862107995,33.23718171305301],[126.56831333533161,33.23560459592208],[126.56076558788519,33.24034455417538],[126.56097532265794,33.24181010501606],[126.55946072008238,33.24092770486533],[126.55992472741949,33.237491004036194]]],[[[126.5667092399845,33.227861181564556],[126.56845374901098,33.22513471085979],[126.564400479343,33.2252030544817],[126.5640192815687,33.22793617112126],[126.5667092399845,33.227861181564556]]],[[[126.60245462951428,33.2285093177972],[126.59905903638962,33.22818281038623],[126.59616707762467,33.22895930702866],[126.59612824773582,33.23096098670839],[126.5994834517375,33.23220637195229],[126.6027406135013,33.23007537237638],[126.60245462951428,33.2285093177972]]],[[[126.91436422109007,33.479136324668936],[126.91143486344252,33.476984491443126],[126.91117122030559,33.48062023510465],[126.91436422109007,33.479136324668936]]]]}}]}
